[{
    "OBJECT_NAME": "COSMOS 2251 DEB",
    "OBJECT_ID": "1993-036GV",
    "EPOCH": "2025-11-21T01:44:56.226336",
    "MEAN_MOTION": 15.14091248,
    "ECCENTRICITY": 0.0004056,
    "INCLINATION": 74.0022,
    "RA_OF_ASC_NODE": 328.5543,
    "ARG_OF_PERICENTER": 54.1546,
    "MEAN_ANOMALY": 306.0024,
    "EPHEMERIS_TYPE": 0,
    "CLASSIFICATION_TYPE": "U",
    "NORAD_CAT_ID": 34010,
    "ELEMENT_SET_NO": 999,
    "REV_AT_EPOCH": 88957,
    "BSTAR": 0.0031973,
    "MEAN_MOTION_DOT": 0.00058661,
    "MEAN_MOTION_DDOT": 0
},{
    "OBJECT_NAME": "COSMOS 2251 DEB",
    "OBJECT_ID": "1993-036GW",
    "EPOCH": "2025-11-21T05:57:26.404128",
    "MEAN_MOTION": 14.41630967,
    "ECCENTRICITY": 0.0035547,
    "INCLINATION": 74.0156,
    "RA_OF_ASC_NODE": 10.0251,
    "ARG_OF_PERICENTER": 101.152,
    "MEAN_ANOMALY": 259.3636,
    "EPHEMERIS_TYPE": 0,
    "CLASSIFICATION_TYPE": "U",
    "NORAD_CAT_ID": 34011,
    "ELEMENT_SET_NO": 999,
    "REV_AT_EPOCH": 87606,
    "BSTAR": 0.0007633,
    "MEAN_MOTION_DOT": 2.479e-5,
    "MEAN_MOTION_DDOT": 0
},{
    "OBJECT_NAME": "COSMOS 2251 DEB",
    "OBJECT_ID": "1993-036GZ",
    "EPOCH": "2025-11-21T11:23:01.871808",
    "MEAN_MOTION": 14.72761194,
    "ECCENTRICITY": 0.0036713,
    "INCLINATION": 74.0166,
    "RA_OF_ASC_NODE": 322.1976,
    "ARG_OF_PERICENTER": 108.3451,
    "MEAN_ANOMALY": 53.1514,
    "EPHEMERIS_TYPE": 0,
    "CLASSIFICATION_TYPE": "U",
    "NORAD_CAT_ID": 34014,
    "ELEMENT_SET_NO": 999,
    "REV_AT_EPOCH": 88990,
    "BSTAR": 0.00096915,
    "MEAN_MOTION_DOT": 6.23e-5,
    "MEAN_MOTION_DDOT": 0
},{
    "OBJECT_NAME": "COSMOS 2251 DEB",
    "OBJECT_ID": "1993-036HA",
    "EPOCH": "2025-11-22T02:02:22.079328",
    "MEAN_MOTION": 14.5991816,
    "ECCENTRICITY": 0.0021538,
    "INCLINATION": 74.0234,
    "RA_OF_ASC_NODE": 198.8681,
    "ARG_OF_PERICENTER": 297.2493,
    "MEAN_ANOMALY": 213.1489,
    "EPHEMERIS_TYPE": 0,
    "CLASSIFICATION_TYPE": "U",
    "NORAD_CAT_ID": 34015,
    "ELEMENT_SET_NO": 999,
    "REV_AT_EPOCH": 88229,
    "BSTAR": 0.0011029,
    "MEAN_MOTION_DOT": 5.274e-5,
    "MEAN_MOTION_DDOT": 0
},{
    "OBJECT_NAME": "COSMOS 2251 DEB",
    "OBJECT_ID": "1993-036HD",
    "EPOCH": "2025-11-21T21:21:33.428736",
    "MEAN_MOTION": 13.81022768,
    "ECCENTRICITY": 0.026498,
    "INCLINATION": 73.8754,
    "RA_OF_ASC_NODE": 127.4273,
    "ARG_OF_PERICENTER": 167.177,
    "MEAN_ANOMALY": 345.9654,
    "EPHEMERIS_TYPE": 0,
    "CLASSIFICATION_TYPE": "U",
    "NORAD_CAT_ID": 34018,
    "ELEMENT_SET_NO": 999,
    "REV_AT_EPOCH": 84369,
    "BSTAR": 0.00069542,
    "MEAN_MOTION_DOT": 9.36e-6,
    "MEAN_MOTION_DDOT": 0
},{
    "OBJECT_NAME": "COSMOS 2251 DEB",
    "OBJECT_ID": "1993-036HE",
    "EPOCH": "2025-11-21T18:57:00.110304",
    "MEAN_MOTION": 14.33781179,
    "ECCENTRICITY": 0.0062316,
    "INCLINATION": 73.9536,
    "RA_OF_ASC_NODE": 89.262,
    "ARG_OF_PERICENTER": 273.5947,
    "MEAN_ANOMALY": 206.7707,
    "EPHEMERIS_TYPE": 0,
    "CLASSIFICATION_TYPE": "U",
    "NORAD_CAT_ID": 34019,
    "ELEMENT_SET_NO": 999,
    "REV_AT_EPOCH": 87220,
    "BSTAR": 0.00095442,
    "MEAN_MOTION_DOT": 2.685e-5,
    "MEAN_MOTION_DDOT": 0
},{
    "OBJECT_NAME": "COSMOS 2251 DEB",
    "OBJECT_ID": "1993-036HG",
    "EPOCH": "2025-11-22T00:11:53.714112",
    "MEAN_MOTION": 14.49846907,
    "ECCENTRICITY": 0.0020394,
    "INCLINATION": 74.0353,
    "RA_OF_ASC_NODE": 168.7504,
    "ARG_OF_PERICENTER": 315.1922,
    "MEAN_ANOMALY": 197.2083,
    "EPHEMERIS_TYPE": 0,
    "CLASSIFICATION_TYPE": "U",
    "NORAD_CAT_ID": 34021,
    "ELEMENT_SET_NO": 999,
    "REV_AT_EPOCH": 88329,
    "BSTAR": 0.00035853,
    "MEAN_MOTION_DOT": 1.36e-5,
    "MEAN_MOTION_DDOT": 0
},{
    "OBJECT_NAME": "COSMOS 2251 DEB",
    "OBJECT_ID": "1993-036HH",
    "EPOCH": "2025-11-22T00:09:12.735360",
    "MEAN_MOTION": 14.38915244,
    "ECCENTRICITY": 0.0021852,
    "INCLINATION": 74.0532,
    "RA_OF_ASC_NODE": 308.9982,
    "ARG_OF_PERICENTER": 18.5291,
    "MEAN_ANOMALY": 37.2632,
    "EPHEMERIS_TYPE": 0,
    "CLASSIFICATION_TYPE": "U",
    "NORAD_CAT_ID": 34022,
    "ELEMENT_SET_NO": 999,
    "REV_AT_EPOCH": 87897,
    "BSTAR": 0.0002485,
    "MEAN_MOTION_DOT": 7.42e-6,
    "MEAN_MOTION_DDOT": 0
},{
    "OBJECT_NAME": "COSMOS 2251 DEB",
    "OBJECT_ID": "1993-036HJ",
    "EPOCH": "2025-11-22T01:11:59.928288",
    "MEAN_MOTION": 14.40490375,
    "ECCENTRICITY": 0.0017538,
    "INCLINATION": 74.024,
    "RA_OF_ASC_NODE": 290.0301,
    "ARG_OF_PERICENTER": 30.1705,
    "MEAN_ANOMALY": 52.6589,
    "EPHEMERIS_TYPE": 0,
    "CLASSIFICATION_TYPE": "U",
    "NORAD_CAT_ID": 34023,
    "ELEMENT_SET_NO": 999,
    "REV_AT_EPOCH": 87916,
    "BSTAR": 0.00038744,
    "MEAN_MOTION_DOT": 1.208e-5,
    "MEAN_MOTION_DDOT": 0
},{
    "OBJECT_NAME": "COSMOS 2251 DEB",
    "OBJECT_ID": "1993-036HK",
    "EPOCH": "2025-11-22T02:37:30.508896",
    "MEAN_MOTION": 14.35363211,
    "ECCENTRICITY": 0.0020223,
    "INCLINATION": 74.0469,
    "RA_OF_ASC_NODE": 353.8073,
    "ARG_OF_PERICENTER": 50.8342,
    "MEAN_ANOMALY": 11.1717,
    "EPHEMERIS_TYPE": 0,
    "CLASSIFICATION_TYPE": "U",
    "NORAD_CAT_ID": 34024,
    "ELEMENT_SET_NO": 999,
    "REV_AT_EPOCH": 87728,
    "BSTAR": 0.00016428,
    "MEAN_MOTION_DOT": 4.46e-6,
    "MEAN_MOTION_DDOT": 0
},{
    "OBJECT_NAME": "COSMOS 2251 DEB",
    "OBJECT_ID": "1993-036HM",
    "EPOCH": "2025-11-21T12:35:24.740160",
    "MEAN_MOTION": 13.65240125,
    "ECCENTRICITY": 0.0351463,
    "INCLINATION": 73.7687,
    "RA_OF_ASC_NODE": 12.5644,
    "ARG_OF_PERICENTER": 245.5892,
    "MEAN_ANOMALY": 230.8372,
    "EPHEMERIS_TYPE": 0,
    "CLASSIFICATION_TYPE": "U",
    "NORAD_CAT_ID": 34026,
    "ELEMENT_SET_NO": 999,
    "REV_AT_EPOCH": 83242,
    "BSTAR": 0.0012965,
    "MEAN_MOTION_DOT": 1.581e-5,
    "MEAN_MOTION_DDOT": 0
},{
    "OBJECT_NAME": "COSMOS 2251 DEB",
    "OBJECT_ID": "1993-036HP",
    "EPOCH": "2025-11-21T20:45:53.254944",
    "MEAN_MOTION": 13.20609998,
    "ECCENTRICITY": 0.0544889,
    "INCLINATION": 73.8847,
    "RA_OF_ASC_NODE": 19.2535,
    "ARG_OF_PERICENTER": 160.6298,
    "MEAN_ANOMALY": 319.0512,
    "EPHEMERIS_TYPE": 0,
    "CLASSIFICATION_TYPE": "U",
    "NORAD_CAT_ID": 34028,
    "ELEMENT_SET_NO": 999,
    "REV_AT_EPOCH": 80732,
    "BSTAR": 0.00053489,
    "MEAN_MOTION_DOT": 4.55e-6,
    "MEAN_MOTION_DDOT": 0
},{
    "OBJECT_NAME": "COSMOS 2251 DEB",
    "OBJECT_ID": "1993-036HS",
    "EPOCH": "2025-11-21T15:50:02.514912",
    "MEAN_MOTION": 14.59361795,
    "ECCENTRICITY": 0.0022942,
    "INCLINATION": 74.0121,
    "RA_OF_ASC_NODE": 175.9562,
    "ARG_OF_PERICENTER": 297.7035,
    "MEAN_ANOMALY": 119.6067,
    "EPHEMERIS_TYPE": 0,
    "CLASSIFICATION_TYPE": "U",
    "NORAD_CAT_ID": 34031,
    "ELEMENT_SET_NO": 999,
    "REV_AT_EPOCH": 88258,
    "BSTAR": 0.0010176,
    "MEAN_MOTION_DOT": 4.806e-5,
    "MEAN_MOTION_DDOT": 0
},{
    "OBJECT_NAME": "COSMOS 2251 DEB",
    "OBJECT_ID": "1993-036HW",
    "EPOCH": "2025-11-21T22:17:01.764096",
    "MEAN_MOTION": 14.51611773,
    "ECCENTRICITY": 0.0043452,
    "INCLINATION": 74.0666,
    "RA_OF_ASC_NODE": 28.2641,
    "ARG_OF_PERICENTER": 35.8948,
    "MEAN_ANOMALY": 15.9328,
    "EPHEMERIS_TYPE": 0,
    "CLASSIFICATION_TYPE": "U",
    "NORAD_CAT_ID": 34035,
    "ELEMENT_SET_NO": 999,
    "REV_AT_EPOCH": 87664,
    "BSTAR": 0.0012574,
    "MEAN_MOTION_DOT": 5.076e-5,
    "MEAN_MOTION_DDOT": 0
}]
