COSMOS 2251 DEB         
1 34010U 93036GV  25325.07287299  .00058661  00000+0  31973-2 0  9990
2 34010  74.0022 328.5543 0004056  54.1546 306.0024 15.14091248889572
COSMOS 2251 DEB         
1 34011U 93036GW  25325.24822227  .00002479  00000+0  76330-3 0  9999
2 34011  74.0156  10.0251 0035547 101.1520 259.3636 14.41630967876069
COSMOS 2251 DEB         
1 34014U 93036GZ  25325.47432722  .00006230  00000+0  96915-3 0  9994
2 34014  74.0166 322.1976 0036713 108.3451  53.1514 14.72761194889905
COSMOS 2251 DEB         
1 34015U 93036HA  25326.08497777  .00005274  00000+0  11029-2 0  9993
2 34015  74.0234 198.8681 0021538 297.2493 213.1489 14.59918160882292
COSMOS 2251 DEB         
1 34018U 93036HD  25325.88997024  .00000936  00000+0  69542-3 0  9997
2 34018  73.8754 127.4273 0264980 167.1770 345.9654 13.81022768843690
COSMOS 2251 DEB         
1 34019U 93036HE  25325.78958461  .00002685  00000+0  95442-3 0  9990
2 34019  73.9536  89.2620 0062316 273.5947 206.7707 14.33781179872206
COSMOS 2251 DEB         
1 34021U 93036HG  25326.00826058  .00001360  00000+0  35853-3 0  9994
2 34021  74.0353 168.7504 0020394 315.1922 197.2083 14.49846907883298
COSMOS 2251 DEB         
1 34022U 93036HH  25326.00639740  .00000742  00000+0  24850-3 0  9993
2 34022  74.0532 308.9982 0021852  18.5291  37.2632 14.38915244878970
COSMOS 2251 DEB         
1 34023U 93036HJ  25326.04999917  .00001208  00000+0  38744-3 0  9998
2 34023  74.0240 290.0301 0017538  30.1705  52.6589 14.40490375879169
COSMOS 2251 DEB         
1 34024U 93036HK  25326.10938089  .00000446  00000+0  16428-3 0  9997
2 34024  74.0469 353.8073 0020223  50.8342  11.1717 14.35363211877284
COSMOS 2251 DEB         
1 34026U 93036HM  25325.52459190  .00001581  00000+0  12965-2 0  9997
2 34026  73.7687  12.5644 0351463 245.5892 230.8372 13.65240125832427
COSMOS 2251 DEB         
1 34028U 93036HP  25325.86519971  .00000455  00000+0  53489-3 0  9996
2 34028  73.8847  19.2535 0544889 160.6298 319.0512 13.20609998807329
COSMOS 2251 DEB         
1 34031U 93036HS  25325.65975133  .00004806  00000+0  10176-2 0  9992
2 34031  74.0121 175.9562 0022942 297.7035 119.6067 14.59361795882586
COSMOS 2251 DEB         
1 34035U 93036HW  25325.92849264  .00005076  00000+0  12574-2 0  9995
2 34035  74.0666  28.2641 0043452  35.8948  15.9328 14.51611773876649
